STARLINK-4625           
1 53683U 22105AM  26068.66558993 -.00000101  00000+0 -32881-5 0  9998
2 53683  97.6012 310.1810 0004658  56.8765 303.2906 15.01261736193239
HAWK-8A                 
1 59443U 24066B   26068.40724718  .00002325  00000+0  20899-3 0  9990
2 59443  45.5937  72.3645 0004214 254.4969 105.5447 14.98766556104869
